[{"OBJECT_NAME":"DUCHIFAT-1","OBJECT_ID":"2014-033M","EPOCH":"2026-03-09T16:47:47.078880","MEAN_MOTION":15.49813944,"ECCENTRICITY":0.00061121,"INCLINATION":98.0631,"RA_OF_ASC_NODE":115.1281,"ARG_OF_PERICENTER":85.0468,"MEAN_ANOMALY":275.1479,"EPHEMERIS_TYPE":0,"CLASSIFICATION_TYPE":"U","NORAD_CAT_ID":40021,"ELEMENT_SET_NO":999,"REV_AT_EPOCH":64027,"BSTAR":0.0010480156,"MEAN_MOTION_DOT":0.0005864,"MEAN_MOTION_DDOT":0},{"OBJECT_NAME":"STARLINK-1114","OBJECT_ID":"2020-001P","EPOCH":"2026-03-09T22:29:13.634304","MEAN_MOTION":15.50335733,"ECCENTRICITY":0.00083622,"INCLINATION":53.05,"RA_OF_ASC_NODE":328.1784,"ARG_OF_PERICENTER":120.9546,"MEAN_ANOMALY":239.2285,"EPHEMERIS_TYPE":0,"CLASSIFICATION_TYPE":"U","NORAD_CAT_ID":44927,"ELEMENT_SET_NO":999,"REV_AT_EPOCH":34013,"BSTAR":0.0018611875,"MEAN_MOTION_DOT":0.00108516,"MEAN_MOTION_DDOT":0}]
